{
  "type": "FeatureCollection",
  "features": [
    {
      "type": "Feature",
      "properties": {
        "norad_id": 37094,
        "name": "COSMOS 2251 DEB",
        "group": "cosmos-2251-debris",
        "lat": 0.3635956508932754,
        "lon": 130.05910087629755,
        "alt_km": 775.0372403462643,
        "timestamp": "2025-12-07T22:37:43.479614+00:00",
        "meta_object_name": "COSMOS 2251 DEB",
        "meta_object_id": "1993-036BFQ",
        "meta_epoch": "2025-12-06T16:34:06.652128",
        "meta_mean_motion": 14.37775632,
        "meta_eccentricity": 0.00842027,
        "meta_inclination": 74.1085,
        "meta_ra_of_asc_node": 132.2507,
        "meta_arg_of_pericenter": 99.9483,
        "meta_mean_anomaly": 261.1188,
        "meta_ephemeris_type": 0,
        "meta_classification_type": "U",
        "meta_norad_cat_id": 37094,
        "meta_element_set_no": 999,
        "meta_rev_at_epoch": 84419,
        "meta_bstar": 0.0017371356,
        "meta_mean_motion_dot": 5.428e-05,
        "meta_mean_motion_ddot": 0,
        "tle_line1": "1 37094U 93036BFQ 25340.69035477  .00005428  00000+0  17371-2 0  9998",
        "tle_line2": "2 37094  74.1085 132.2507 0084202  99.9483 261.1188 14.37775632844196"
      },
      "geometry": {
        "type": "Point",
        "coordinates": [
          130.05910087629755,
          0.3635956508932754
        ]
      }
    },
    {
      "type": "Feature",
      "properties": {
        "norad_id": 37095,
        "name": "COSMOS 2251 DEB",
        "group": "cosmos-2251-debris",
        "lat": 17.40354576894836,
        "lon": 13.148710467400228,
        "alt_km": 892.2885375988299,
        "timestamp": "2025-12-07T22:37:43.479624+00:00",
        "meta_object_name": "COSMOS 2251 DEB",
        "meta_object_id": "1993-036BFR",
        "meta_epoch": "2025-12-05T08:14:56.192352",
        "meta_mean_motion": 14.03341959,
        "meta_eccentricity": 0.01953957,
        "meta_inclination": 73.8477,
        "meta_ra_of_asc_node": 202.9366,
        "meta_arg_of_pericenter": 261.9904,
        "meta_mean_anomaly": 95.9019,
        "meta_ephemeris_type": 0,
        "meta_classification_type": "U",
        "meta_norad_cat_id": 37095,
        "meta_element_set_no": 999,
        "meta_rev_at_epoch": 62532,
        "meta_bstar": 0.0025687664,
        "meta_mean_motion_dot": 4.727e-05,
        "meta_mean_motion_ddot": 0,
        "tle_line1": "1 37095U 93036BFR 25339.34370593  .00004727  00000+0  25688-2 0  9991",
        "tle_line2": "2 37095  73.8477 202.9366 0195395 261.9904  95.9019 14.03341959625323"
      },
      "geometry": {
        "type": "Point",
        "coordinates": [
          13.148710467400228,
          17.40354576894836
        ]
      }
    },
    {
      "type": "Feature",
      "properties": {
        "norad_id": 37108,
        "name": "COSMOS 2251 DEB",
        "group": "cosmos-2251-debris",
        "lat": -73.55927821081151,
        "lon": 13.602278831684933,
        "alt_km": 780.0386432044988,
        "timestamp": "2025-12-07T22:37:43.479635+00:00",
        "meta_object_name": "COSMOS 2251 DEB",
        "meta_object_id": "1993-036BGE",
        "meta_epoch": "2025-12-02T08:05:10.630176",
        "meta_mean_motion": 14.41120633,
        "meta_eccentricity": 0.00925525,
        "meta_inclination": 74.0427,
        "meta_ra_of_asc_node": 99.8151,
        "meta_arg_of_pericenter": 178.899,
        "meta_mean_anomaly": 181.2388,
        "meta_ephemeris_type": 0,
        "meta_classification_type": "U",
        "meta_norad_cat_id": 37108,
        "meta_element_set_no": 999,
        "meta_rev_at_epoch": 85357,
        "meta_bstar": 0.0020748567,
        "meta_mean_motion_dot": 7.015e-05,
        "meta_mean_motion_ddot": 0,
        "tle_line1": "1 37108U 93036BGE 25336.33692859  .00007015  00000+0  20749-2 0  9990",
        "tle_line2": "2 37108  74.0427  99.8151 0092552 178.8990 181.2388 14.41120633853577"
      },
      "geometry": {
        "type": "Point",
        "coordinates": [
          13.602278831684933,
          -73.55927821081151
        ]
      }
    },
    {
      "type": "Feature",
      "properties": {
        "norad_id": 37126,
        "name": "COSMOS 2251 DEB",
        "group": "cosmos-2251-debris",
        "lat": -14.67701308000882,
        "lon": -0.39594585514275116,
        "alt_km": 672.2596801689833,
        "timestamp": "2025-12-07T22:37:43.479646+00:00",
        "meta_object_name": "COSMOS 2251 DEB",
        "meta_object_id": "1993-036BGY",
        "meta_epoch": "2025-12-07T08:01:44.004576",
        "meta_mean_motion": 14.73044037,
        "meta_eccentricity": 0.01233958,
        "meta_inclination": 73.952,
        "meta_ra_of_asc_node": 5.1188,
        "meta_arg_of_pericenter": 244.4647,
        "meta_mean_anomaly": 114.3726,
        "meta_ephemeris_type": 0,
        "meta_classification_type": "U",
        "meta_norad_cat_id": 37126,
        "meta_element_set_no": 999,
        "meta_rev_at_epoch": 8019,
        "meta_bstar": 0.00045541801,
        "meta_mean_motion_dot": 3.268e-05,
        "meta_mean_motion_ddot": 0,
        "tle_line1": "1 37126U 93036BGY 25341.33453709  .00003268  00000+0  45542-3 0  9990",
        "tle_line2": "2 37126  73.9520   5.1188 0123395 244.4647 114.3726 14.73044037 80199"
      },
      "geometry": {
        "type": "Point",
        "coordinates": [
          -0.39594585514275116,
          -14.67701308000882
        ]
      }
    },
    {
      "type": "Feature",
      "properties": {
        "norad_id": 37132,
        "name": "COSMOS 2251 DEB",
        "group": "cosmos-2251-debris",
        "lat": -43.57624921706675,
        "lon": -132.3605250494732,
        "alt_km": 641.1265745736855,
        "timestamp": "2025-12-07T22:37:43.479656+00:00",
        "meta_object_name": "COSMOS 2251 DEB",
        "meta_object_id": "1993-036BHE",
        "meta_epoch": "2025-11-29T01:57:55.161216",
        "meta_mean_motion": 14.77491911,
        "meta_eccentricity": 0.00393056,
        "meta_inclination": 74.0019,
        "meta_ra_of_asc_node": 260.8973,
        "meta_arg_of_pericenter": 60.0895,
        "meta_mean_anomaly": 300.4174,
        "meta_ephemeris_type": 0,
        "meta_classification_type": "U",
        "meta_norad_cat_id": 37132,
        "meta_element_set_no": 999,
        "meta_rev_at_epoch": 62214,
        "meta_bstar": 0.0012599445,
        "meta_mean_motion_dot": 9.078e-05,
        "meta_mean_motion_ddot": 0,
        "tle_line1": "1 37132U 93036BHE 25333.08188844  .00009078  00000+0  12599-2 0  9995",
        "tle_line2": "2 37132  74.0019 260.8973 0039305  60.0895 300.4174 14.77491911622140"
      },
      "geometry": {
        "type": "Point",
        "coordinates": [
          -132.3605250494732,
          -43.57624921706675
        ]
      }
    },
    {
      "type": "Feature",
      "properties": {
        "norad_id": 37270,
        "name": "COSMOS 2251 DEB",
        "group": "cosmos-2251-debris",
        "lat": -12.927904128871571,
        "lon": -20.084133156345032,
        "alt_km": 749.7868959631232,
        "timestamp": "2025-12-07T22:37:43.479666+00:00",
        "meta_object_name": "COSMOS 2251 DEB",
        "meta_object_id": "1993-036BHJ",
        "meta_epoch": "2025-12-06T23:44:09.019392",
        "meta_mean_motion": 13.59708116,
        "meta_eccentricity": 0.03977945,
        "meta_inclination": 73.9304,
        "meta_ra_of_asc_node": 345.2655,
        "meta_arg_of_pericenter": 358.2371,
        "meta_mean_anomaly": 1.731,
        "meta_ephemeris_type": 0,
        "meta_classification_type": "U",
        "meta_norad_cat_id": 37270,
        "meta_element_set_no": 999,
        "meta_rev_at_epoch": 76991,
        "meta_bstar": 0.0060698053,
        "meta_mean_motion_dot": 7.585e-05,
        "meta_mean_motion_ddot": 0,
        "tle_line1": "1 37270U 93036BHJ 25340.98899328  .00007585  00000+0  60698-2 0  9995",
        "tle_line2": "2 37270  73.9304 345.2655 0397794 358.2371   1.7310 13.59708116769910"
      },
      "geometry": {
        "type": "Point",
        "coordinates": [
          -20.084133156345032,
          -12.927904128871571
        ]
      }
    },
    {
      "type": "Feature",
      "properties": {
        "norad_id": 37278,
        "name": "COSMOS 2251 DEB",
        "group": "cosmos-2251-debris",
        "lat": 43.09496414569526,
        "lon": 162.16057230906023,
        "alt_km": 686.1698962234896,
        "timestamp": "2025-12-07T22:37:43.479677+00:00",
        "meta_object_name": "COSMOS 2251 DEB",
        "meta_object_id": "1993-036BHS",
        "meta_epoch": "2025-12-04T09:26:36.152736",
        "meta_mean_motion": 14.15029915,
        "meta_eccentricity": 0.029998,
        "meta_inclination": 73.7864,
        "meta_ra_of_asc_node": 4.3592,
        "meta_arg_of_pericenter": 188.2556,
        "meta_mean_anomaly": 234.4903,
        "meta_ephemeris_type": 0,
        "meta_classification_type": "U",
        "meta_norad_cat_id": 37278,
        "meta_element_set_no": 999,
        "meta_rev_at_epoch": 63711,
        "meta_bstar": 0.0023061,
        "meta_mean_motion_dot": 6.884e-05,
        "meta_mean_motion_ddot": 0,
        "tle_line1": "1 37278U 93036BHS 25338.39347399  .00006884  00000+0  23061-2 0  9995",
        "tle_line2": "2 37278  73.7864   4.3592 0299980 188.2556 234.4903 14.15029915637119"
      },
      "geometry": {
        "type": "Point",
        "coordinates": [
          162.16057230906023,
          43.09496414569526
        ]
      }
    }
  ]
}